CCSDS_OMM_VERS = 2.0
CREATION_DATE  = 
ORIGINATOR     = 

OBJECT_NAME    = UNKNOWN
OBJECT_ID      = 
CENTER_NAME    = EARTH
REF_FRAME      = TEME
TIME_SYSTEM    = UTC
MEAN_ELEMENT_THEORY = SGP/SGP4

EPOCH          = 2025-11-20T02:04:43.108320
MEAN_MOTION    = 13.82400206
ECCENTRICITY   = .0565081
INCLINATION    = 65.7702
RA_OF_ASC_NODE = 86.6079
ARG_OF_PERICENTER = 318.6599
MEAN_ANOMALY   = 37.2958

EPHEMERIS_TYPE = 0
CLASSIFICATION_TYPE = U
NORAD_CAT_ID   = 81052
ELEMENT_SET_NO = 999
REV_AT_EPOCH   = 59718
BSTAR          = .10074E-2
MEAN_MOTION_DOT = .3701E-4
MEAN_MOTION_DDOT = 0

CCSDS_OMM_VERS = 2.0
CREATION_DATE  = 
ORIGINATOR     = 

OBJECT_NAME    = UNKNOWN
OBJECT_ID      = 
CENTER_NAME    = EARTH
REF_FRAME      = TEME
TIME_SYSTEM    = UTC
MEAN_ELEMENT_THEORY = SGP/SGP4

EPOCH          = 2025-11-20T11:33:16.558560
MEAN_MOTION    = 13.60293822
ECCENTRICITY   = .0063562
INCLINATION    = 100.3811
RA_OF_ASC_NODE = 224.2490
ARG_OF_PERICENTER = 96.3937
MEAN_ANOMALY   = 264.4443

EPHEMERIS_TYPE = 0
CLASSIFICATION_TYPE = U
NORAD_CAT_ID   = 81069
ELEMENT_SET_NO = 999
REV_AT_EPOCH   = 51290
BSTAR          = .50834E-2
MEAN_MOTION_DOT = .3815E-4
MEAN_MOTION_DDOT = 0

CCSDS_OMM_VERS = 2.0
CREATION_DATE  = 
ORIGINATOR     = 

OBJECT_NAME    = UNKNOWN
OBJECT_ID      = 
CENTER_NAME    = EARTH
REF_FRAME      = TEME
TIME_SYSTEM    = UTC
MEAN_ELEMENT_THEORY = SGP/SGP4

EPOCH          = 2025-11-19T21:46:52.452192
MEAN_MOTION    = 11.22438010
ECCENTRICITY   = .0179923
INCLINATION    = 65.1150
RA_OF_ASC_NODE = 295.2969
ARG_OF_PERICENTER = 6.6503
MEAN_ANOMALY   = 18.4737

EPHEMERIS_TYPE = 0
CLASSIFICATION_TYPE = U
NORAD_CAT_ID   = 81078
ELEMENT_SET_NO = 999
REV_AT_EPOCH   = 49206
BSTAR          = .34586E-2
MEAN_MOTION_DOT = .75E-6
MEAN_MOTION_DDOT = 0

CCSDS_OMM_VERS = 2.0
CREATION_DATE  = 
ORIGINATOR     = 

OBJECT_NAME    = UNKNOWN
OBJECT_ID      = 
CENTER_NAME    = EARTH
REF_FRAME      = TEME
TIME_SYSTEM    = UTC
MEAN_ELEMENT_THEORY = SGP/SGP4

EPOCH          = 2025-11-20T08:01:08.452704
MEAN_MOTION    = 7.54632122
ECCENTRICITY   = .386391
INCLINATION    = 62.8945
RA_OF_ASC_NODE = 40.3024
ARG_OF_PERICENTER = 356.3731
MEAN_ANOMALY   = 1.5152

EPHEMERIS_TYPE = 0
CLASSIFICATION_TYPE = U
NORAD_CAT_ID   = 81111
ELEMENT_SET_NO = 999
REV_AT_EPOCH   = 27025
BSTAR          = .28836E-2
MEAN_MOTION_DOT = .13335E-3
MEAN_MOTION_DDOT = 0

CCSDS_OMM_VERS = 2.0
CREATION_DATE  = 
ORIGINATOR     = 

OBJECT_NAME    = UNKNOWN
OBJECT_ID      = 
CENTER_NAME    = EARTH
REF_FRAME      = TEME
TIME_SYSTEM    = UTC
MEAN_ELEMENT_THEORY = SGP/SGP4

EPOCH          = 2025-11-19T13:42:40.923936
MEAN_MOTION    = 12.92967079
ECCENTRICITY   = .002756
INCLINATION    = 90.2501
RA_OF_ASC_NODE = 3.5088
ARG_OF_PERICENTER = 91.3667
MEAN_ANOMALY   = 269.0609

EPHEMERIS_TYPE = 0
CLASSIFICATION_TYPE = U
NORAD_CAT_ID   = 81134
ELEMENT_SET_NO = 999
REV_AT_EPOCH   = 45961
BSTAR          = .10733E-2
MEAN_MOTION_DOT = .3E-5
MEAN_MOTION_DDOT = 0

CCSDS_OMM_VERS = 2.0
CREATION_DATE  = 
ORIGINATOR     = 

OBJECT_NAME    = UNKNOWN
OBJECT_ID      = 
CENTER_NAME    = EARTH
REF_FRAME      = TEME
TIME_SYSTEM    = UTC
MEAN_ELEMENT_THEORY = SGP/SGP4

EPOCH          = 2025-11-20T12:10:37.964640
MEAN_MOTION    = 13.75540261
ECCENTRICITY   = .0064234
INCLINATION    = 100.4174
RA_OF_ASC_NODE = 164.4958
ARG_OF_PERICENTER = 339.4576
MEAN_ANOMALY   = 20.3989

EPHEMERIS_TYPE = 0
CLASSIFICATION_TYPE = U
NORAD_CAT_ID   = 81161
ELEMENT_SET_NO = 999
REV_AT_EPOCH   = 55307
BSTAR          = .18762E-2
MEAN_MOTION_DOT = .1783E-4
MEAN_MOTION_DDOT = 0

CCSDS_OMM_VERS = 2.0
CREATION_DATE  = 
ORIGINATOR     = 

OBJECT_NAME    = UNKNOWN
OBJECT_ID      = 
CENTER_NAME    = EARTH
REF_FRAME      = TEME
TIME_SYSTEM    = UTC
MEAN_ELEMENT_THEORY = SGP/SGP4

EPOCH          = 2025-11-16T11:48:17.042688
MEAN_MOTION    = 13.81760472
ECCENTRICITY   = .0019681
INCLINATION    = 82.9280
RA_OF_ASC_NODE = 25.8562
ARG_OF_PERICENTER = 289.2109
MEAN_ANOMALY   = 70.6921

EPHEMERIS_TYPE = 0
CLASSIFICATION_TYPE = U
NORAD_CAT_ID   = 81219
ELEMENT_SET_NO = 999
REV_AT_EPOCH   = 60389
BSTAR          = .67079E-3
MEAN_MOTION_DOT = .733E-5
MEAN_MOTION_DDOT = 0

CCSDS_OMM_VERS = 2.0
CREATION_DATE  = 
ORIGINATOR     = 

OBJECT_NAME    = UNKNOWN
OBJECT_ID      = 
CENTER_NAME    = EARTH
REF_FRAME      = TEME
TIME_SYSTEM    = UTC
MEAN_ELEMENT_THEORY = SGP/SGP4

EPOCH          = 2025-11-14T09:55:35.034816
MEAN_MOTION    = 14.40317874
ECCENTRICITY   = .006167
INCLINATION    = 70.5228
RA_OF_ASC_NODE = 340.2631
ARG_OF_PERICENTER = 42.5648
MEAN_ANOMALY   = 318.0240

EPHEMERIS_TYPE = 0
CLASSIFICATION_TYPE = U
NORAD_CAT_ID   = 81228
ELEMENT_SET_NO = 999
REV_AT_EPOCH   = 62201
BSTAR          = .20552E-2
MEAN_MOTION_DOT = .6619E-4
MEAN_MOTION_DDOT = 0

CCSDS_OMM_VERS = 2.0
CREATION_DATE  = 
ORIGINATOR     = 

OBJECT_NAME    = UNKNOWN
OBJECT_ID      = 
CENTER_NAME    = EARTH
REF_FRAME      = TEME
TIME_SYSTEM    = UTC
MEAN_ELEMENT_THEORY = SGP/SGP4

EPOCH          = 2025-11-19T14:41:08.153088
MEAN_MOTION    = 14.01280501
ECCENTRICITY   = .0074192
INCLINATION    = 100.3876
RA_OF_ASC_NODE = 22.5345
ARG_OF_PERICENTER = 134.4399
MEAN_ANOMALY   = 226.2863

EPHEMERIS_TYPE = 0
CLASSIFICATION_TYPE = U
NORAD_CAT_ID   = 81254
ELEMENT_SET_NO = 999
REV_AT_EPOCH   = 60965
BSTAR          = .22519E-2
MEAN_MOTION_DOT = .3419E-4
MEAN_MOTION_DDOT = 0

CCSDS_OMM_VERS = 2.0
CREATION_DATE  = 
ORIGINATOR     = 

OBJECT_NAME    = UNKNOWN
OBJECT_ID      = 
CENTER_NAME    = EARTH
REF_FRAME      = TEME
TIME_SYSTEM    = UTC
MEAN_ELEMENT_THEORY = SGP/SGP4

EPOCH          = 2025-11-17T14:51:35.234784
MEAN_MOTION    = 14.19866143
ECCENTRICITY   = .0208651
INCLINATION    = 98.1341
RA_OF_ASC_NODE = 23.0619
ARG_OF_PERICENTER = 98.7746
MEAN_ANOMALY   = 263.7123

EPHEMERIS_TYPE = 0
CLASSIFICATION_TYPE = U
NORAD_CAT_ID   = 81279
ELEMENT_SET_NO = 999
REV_AT_EPOCH   = 45903
BSTAR          = .60916E-3
MEAN_MOTION_DOT = .1568E-4
MEAN_MOTION_DDOT = 0

CCSDS_OMM_VERS = 2.0
CREATION_DATE  = 
ORIGINATOR     = 

OBJECT_NAME    = UNKNOWN
OBJECT_ID      = 
CENTER_NAME    = EARTH
REF_FRAME      = TEME
TIME_SYSTEM    = UTC
MEAN_ELEMENT_THEORY = SGP/SGP4

EPOCH          = 2025-11-19T20:19:59.274048
MEAN_MOTION    = 13.76687865
ECCENTRICITY   = .0095842
INCLINATION    = 66.7601
RA_OF_ASC_NODE = 350.5499
ARG_OF_PERICENTER = 247.0274
MEAN_ANOMALY   = 295.2485

EPHEMERIS_TYPE = 0
CLASSIFICATION_TYPE = U
NORAD_CAT_ID   = 81301
ELEMENT_SET_NO = 999
REV_AT_EPOCH   = 60320
BSTAR          = .33584E-3
MEAN_MOTION_DOT = .267E-5
MEAN_MOTION_DDOT = 0

CCSDS_OMM_VERS = 2.0
CREATION_DATE  = 
ORIGINATOR     = 

OBJECT_NAME    = UNKNOWN
OBJECT_ID      = 
CENTER_NAME    = EARTH
REF_FRAME      = TEME
TIME_SYSTEM    = UTC
MEAN_ELEMENT_THEORY = SGP/SGP4

EPOCH          = 2025-11-16T10:23:10.081248
MEAN_MOTION    = 14.56474920
ECCENTRICITY   = .0131375
INCLINATION    = 98.7384
RA_OF_ASC_NODE = 16.4643
ARG_OF_PERICENTER = 204.7826
MEAN_ANOMALY   = 170.0796

EPHEMERIS_TYPE = 0
CLASSIFICATION_TYPE = U
NORAD_CAT_ID   = 81311
ELEMENT_SET_NO = 999
REV_AT_EPOCH   = 63576
BSTAR          = .32893E-3
MEAN_MOTION_DOT = .1586E-4
MEAN_MOTION_DDOT = 0

