UNKNOWN                 
1 81052U          25324.08661005  .00003701  00000+0  10074-2 0  9992
2 81052  65.7702  86.6079 0565081 318.6599  37.2958 13.82400206597187
UNKNOWN                 
1 81069U          25324.48144165  .00003815  00000+0  50834-2 0  9991
2 81069 100.3811 224.2490 0063562  96.3937 264.4443 13.60293822512902
UNKNOWN                 
1 81078U          25323.90755153  .00000075  00000+0  34586-2 0  9993
2 81078  65.1150 295.2969 0179923   6.6503  18.4737 11.22438010492060
UNKNOWN                 
1 81111U          25324.33412561  .00013335  00000+0  28836-2 0  9996
2 81111  62.8945  40.3024 3863910 356.3731   1.5152  7.54632122270251
UNKNOWN                 
1 81134U          25323.57130699  .00000300  00000+0  10733-2 0  9990
2 81134  90.2501   3.5088 0027560  91.3667 269.0609 12.92967079459611
UNKNOWN                 
1 81161U          25324.50738385  .00001783  00000+0  18762-2 0  9996
2 81161 100.4174 164.4958 0064234 339.4576  20.3989 13.75540261553074
UNKNOWN                 
1 81219U          25320.49186392  .00000733  00000+0  67079-3 0  9999
2 81219  82.9280  25.8562 0019681 289.2109  70.6921 13.81760472603896
UNKNOWN                 
1 81228U          25318.41359994  .00006619  00000+0  20552-2 0  9991
2 81228  70.5228 340.2631 0061670  42.5648 318.0240 14.40317874622013
UNKNOWN                 
1 81254U          25323.61189992  .00003419  00000+0  22519-2 0  9997
2 81254 100.3876  22.5345 0074192 134.4399 226.2863 14.01280501609651
UNKNOWN                 
1 81279U          25321.61915781  .00001568  00000+0  60916-3 0  9992
2 81279  98.1341  23.0619 0208651  98.7746 263.7123 14.19866143459037
UNKNOWN                 
1 81301U          25323.84721382  .00000267  00000+0  33584-3 0  9993
2 81301  66.7601 350.5499 0095842 247.0274 295.2485 13.76687865603203
UNKNOWN                 
1 81311U          25320.43275557  .00001586  00000+0  32893-3 0  9991
2 81311  98.7384  16.4643 0131375 204.7826 170.0796 14.56474920635767
